[
    {
        "Altitude(m)": 604221.2286824,
        "Argument of Periapsis(deg)": 0.0,
        "Eccentricity": 0.0,
        "Inclination(deg)": 60.0,
        "Latitude(deg)": 14.117384743252034,
        "Longitude(deg)": 108.33415425204302,
        "Mean Anomaly(deg)": 16.363600000000012,
        "RAAN(deg)": 200.0,
        "Satellite Name": "Test1 881",
        "Satellite Number": 881,
        "Semi-Major Axis(m)": 6980739.136638005,
        "Time(s)": 0
    },
    {
        "Altitude(m)": 604235.3704354193,
        "Argument of Periapsis(deg)": 0.00010418945913296404,
        "Eccentricity": 0.0,
        "Inclination(deg)": 60.0,
        "Latitude(deg)": 14.651781488549323,
        "Longitude(deg)": 108.62260139480958,
        "Mean Anomaly(deg)": 16.983706145461838,
        "RAAN(deg)": 199.99957995086027,
        "Satellite Name": "Test1 881",
        "Satellite Number": 881,
        "Semi-Major Axis(m)": 6980739.136638005,
        "Time(s)": 10
    }
]